[{"OBJECT_NAME":"SHIJIAN-6 05B (SJ-6 05B)","OBJECT_ID":"2021-122B","EPOCH":"2026-03-09T16:33:59.042016","MEAN_MOTION":15.11445981,"ECCENTRICITY":0.0002764,"INCLINATION":97.3727,"RA_OF_ASC_NODE":52.7566,"ARG_OF_PERICENTER":59.7124,"MEAN_ANOMALY":300.438,"EPHEMERIS_TYPE":0,"CLASSIFICATION_TYPE":"U","NORAD_CAT_ID":49962,"ELEMENT_SET_NO":999,"REV_AT_EPOCH":23471,"BSTAR":0.00020679,"MEAN_MOTION_DOT":3.434e-5,"MEAN_MOTION_DDOT":0},{"OBJECT_NAME":"STARLINK-3854","OBJECT_ID":"2022-052BC","EPOCH":"2026-03-09T17:17:06.210528","MEAN_MOTION":15.08838034,"ECCENTRICITY":0.00012104,"INCLINATION":53.2165,"RA_OF_ASC_NODE":258.9801,"ARG_OF_PERICENTER":92.847,"MEAN_ANOMALY":267.2661,"EPHEMERIS_TYPE":0,"CLASSIFICATION_TYPE":"U","NORAD_CAT_ID":52648,"ELEMENT_SET_NO":999,"REV_AT_EPOCH":21113,"BSTAR":-6.811906e-6,"MEAN_MOTION_DOT":-3.96e-6,"MEAN_MOTION_DDOT":0}]
