SHIJIAN-6 05B (SJ-6 05B)
1 49962U 21122B   26068.69026669  .00003434  00000+0  20679-3 0  9994
2 49962  97.3727  52.7566 0002764  59.7124 300.4380 15.11445981234719
STARLINK-3854           
1 52648U 22052BC  26068.72021076 -.00000396  00000+0 -68119-5 0  9992
2 52648  53.2165 258.9801 0001210  92.8470 267.2661 15.08838034211134
